[{"OBJECT_NAME":"LYNK TOWER 5","OBJECT_ID":"2024-043Z","EPOCH":"2026-03-09T22:11:51.175104","MEAN_MOTION":15.29454506,"ECCENTRICITY":0.00104056,"INCLINATION":97.5458,"RA_OF_ASC_NODE":204.7305,"ARG_OF_PERICENTER":234.6422,"MEAN_ANOMALY":125.3846,"EPHEMERIS_TYPE":0,"CLASSIFICATION_TYPE":"U","NORAD_CAT_ID":59121,"ELEMENT_SET_NO":999,"REV_AT_EPOCH":11186,"BSTAR":0.00031901545,"MEAN_MOTION_DOT":9.048e-5,"MEAN_MOTION_DDOT":0},{"OBJECT_NAME":"STARLINK-31620","OBJECT_ID":"2024-068F","EPOCH":"2026-03-09T07:16:40.742976","MEAN_MOTION":15.27579794,"ECCENTRICITY":0.00010879,"INCLINATION":43.0037,"RA_OF_ASC_NODE":33.2379,"ARG_OF_PERICENTER":268.8316,"MEAN_ANOMALY":91.2411,"EPHEMERIS_TYPE":0,"CLASSIFICATION_TYPE":"U","NORAD_CAT_ID":59460,"ELEMENT_SET_NO":999,"REV_AT_EPOCH":10850,"BSTAR":-1.1633077e-5,"MEAN_MOTION_DOT":-5.82e-6,"MEAN_MOTION_DDOT":0}]
